{"type": "FeatureCollection", "features": [ {"type": "Feature", "properties": {"norad_id": 39122, "name": "EUTELSAT 117 WEST A", "group": "eutelsat", "lat": -0.02583780868389348, "lon": -54.05222979728076, "alt_km": 35776.74427353231, "timestamp": "2025-12-13T22:39:29.379919+00:00", "meta": {"OBJECT_NAME": "EUTELSAT 117 WEST A", "OBJECT_ID": "2013-012A", "EPOCH": "2025-12-13T05:13:48.663840", "MEAN_MOTION": 1.00271833, "ECCENTRICITY": 0.00028899, "INCLINATION": 0.0167, "RA_OF_ASC_NODE": 18.6403, "ARG_OF_PERICENTER": 246.8525, "MEAN_ANOMALY": 138.3061, "EPHEMERIS_TYPE": 0, "CLASSIFICATION_TYPE": "U", "NORAD_CAT_ID": 39122, "ELEMENT_SET_NO": 999, "REV_AT_EPOCH": 4656, "BSTAR": 0, "MEAN_MOTION_DOT": 1e-08, "MEAN_MOTION_DDOT": 0}, "tle": {"line1": "1 39122U 13012A   25347.21792435  .00000001  00000+0  00000+0 0  9997", "line2": "2 39122   0.0167  18.6403 0002889 246.8525 138.3061  1.00271833 46562"}}, "geometry": {"type": "Point", "coordinates": [-54.05222979728076, -0.02583780868389348]}}, {"type": "Feature", "properties": {"norad_id": 39163, "name": "EUTELSAT 7B", "group": "eutelsat", "lat": 0.07366069897526825, "lon": 69.78542984884189, "alt_km": 35792.81525804196, "timestamp": "2025-12-13T22:39:29.379939+00:00", "meta": {"OBJECT_NAME": "EUTELSAT 7B", "OBJECT_ID": "2013-022A", "EPOCH": "2025-12-13T04:55:20.784288", "MEAN_MOTION": 1.00273243, "ECCENTRICITY": 0.00046461, "INCLINATION": 0.0744, "RA_OF_ASC_NODE": 22.0516, "ARG_OF_PERICENTER": 296.2554, "MEAN_ANOMALY": 204.6691, "EPHEMERIS_TYPE": 0, "CLASSIFICATION_TYPE": "U", "NORAD_CAT_ID": 39163, "ELEMENT_SET_NO": 999, "REV_AT_EPOCH": 4609, "BSTAR": 0, "MEAN_MOTION_DOT": 6.2e-07, "MEAN_MOTION_DDOT": 0}, "tle": {"line1": "1 39163U 13022A   25347.20510167  .00000062  00000+0  00000+0 0  9999", "line2": "2 39163   0.0744  22.0516 0004646 296.2554 204.6691  1.00273243 46097"}}, "geometry": {"type": "Point", "coordinates": [69.78542984884189, 0.07366069897526825]}}, {"type": "Feature", "properties": {"norad_id": 39612, "name": "EXPRESS-AT1", "group": "eutelsat", "lat": 0.01717686967342742, "lon": 118.71900486534066, "alt_km": 35786.4093183574, "timestamp": "2025-12-13T22:39:29.379962+00:00", "meta": {"OBJECT_NAME": "EXPRESS-AT1", "OBJECT_ID": "2014-010A", "EPOCH": "2025-12-13T05:09:19.444896", "MEAN_MOTION": 1.00270773, "ECCENTRICITY": 6.81e-06, "INCLINATION": 0.0161, "RA_OF_ASC_NODE": 324.9863, "ARG_OF_PERICENTER": 266.3434, "MEAN_ANOMALY": 344.1406, "EPHEMERIS_TYPE": 0, "CLASSIFICATION_TYPE": "U", "NORAD_CAT_ID": 39612, "ELEMENT_SET_NO": 999, "REV_AT_EPOCH": 4295, "BSTAR": 0, "MEAN_MOTION_DOT": 0, "MEAN_MOTION_DDOT": 0}, "tle": {"line1": "1 39612U 14010A   25347.21480839  .00000000  00000+0  00000+0 0  9991", "line2": "2 39612   0.0161 324.9863 0000068 266.3434 344.1406  1.00270773 42957"}}, "geometry": {"type": "Point", "coordinates": [118.71900486534066, 0.01717686967342742]}}, {"type": "Feature", "properties": {"norad_id": 39613, "name": "EXPRESS-AT2", "group": "eutelsat", "lat": -0.03260288123565625, "lon": -157.43126093252278, "alt_km": 35786.681920848314, "timestamp": "2025-12-13T22:39:29.379976+00:00", "meta": {"OBJECT_NAME": "EXPRESS-AT2", "OBJECT_ID": "2014-010B", "EPOCH": "2025-12-13T06:03:32.565600", "MEAN_MOTION": 1.00270486, "ECCENTRICITY": 0.00014697, "INCLINATION": 0.0188, "RA_OF_ASC_NODE": 313.712, "ARG_OF_PERICENTER": 340.5083, "MEAN_ANOMALY": 18.7089, "EPHEMERIS_TYPE": 0, "CLASSIFICATION_TYPE": "U", "NORAD_CAT_ID": 39613, "ELEMENT_SET_NO": 999, "REV_AT_EPOCH": 4263, "BSTAR": 0, "MEAN_MOTION_DOT": -2.67e-06, "MEAN_MOTION_DDOT": 0}, "tle": {"line1": "1 39613U 14010B   25347.25246025 -.00000267  00000+0  00000+0 0  9999", "line2": "2 39613   0.0188 313.7120 0001469 340.5083  18.7089  1.00270486 42637"}}, "geometry": {"type": "Point", "coordinates": [-157.43126093252278, -0.03260288123565625]}}, {"type": "Feature", "properties": {"norad_id": 39773, "name": "EUTELSAT 3B", "group": "eutelsat", "lat": 0.07874073731109038, "lon": 65.81209353881005, "alt_km": 35804.7881821524, "timestamp": "2025-12-13T22:39:29.379988+00:00", "meta": {"OBJECT_NAME": "EUTELSAT 3B", "OBJECT_ID": "2014-030A", "EPOCH": "2025-12-13T04:54:13.391424", "MEAN_MOTION": 1.00270841, "ECCENTRICITY": 0.00045373, "INCLINATION": 0.061, "RA_OF_ASC_NODE": 350.2392, "ARG_OF_PERICENTER": 239.9894, "MEAN_ANOMALY": 288.5624, "EPHEMERIS_TYPE": 0, "CLASSIFICATION_TYPE": "U", "NORAD_CAT_ID": 39773, "ELEMENT_SET_NO": 999, "REV_AT_EPOCH": 4220, "BSTAR": 0, "MEAN_MOTION_DOT": 3.3e-07, "MEAN_MOTION_DDOT": 0}, "tle": {"line1": "1 39773U 14030A   25347.20432166  .00000033  00000+0  00000+0 0  9996", "line2": "2 39773   0.0610 350.2392 0004537 239.9894 288.5624  1.00270841 42201"}}, "geometry": {"type": "Point", "coordinates": [65.81209353881005, 0.07874073731109038]}}, {"type": "Feature", "properties": {"norad_id": 40425, "name": "EUTELSAT 115 WEST B", "group": "eutelsat", "lat": -0.00018274311011581506, "lon": -52.14952567826909, "alt_km": 35785.74621022538, "timestamp": "2025-12-13T22:39:29.380000+00:00", "meta": {"OBJECT_NAME": "EUTELSAT 115 WEST B", "OBJECT_ID": "2015-010B", "EPOCH": "2025-12-12T23:12:23.635008", "MEAN_MOTION": 1.00273842, "ECCENTRICITY": 7.22e-06, "INCLINATION": 0.0199, "RA_OF_ASC_NODE": 163.8927, "ARG_OF_PERICENTER": 349.5019, "MEAN_ANOMALY": 161.7193, "EPHEMERIS_TYPE": 0, "CLASSIFICATION_TYPE": "U", "NORAD_CAT_ID": 40425, "ELEMENT_SET_NO": 999, "REV_AT_EPOCH": 3952, "BSTAR": 0, "MEAN_MOTION_DOT": -1.3e-07, "MEAN_MOTION_DDOT": 0}, "tle": {"line1": "1 40425U 15010B   25346.96694022 -.00000013  00000+0  00000+0 0  9993", "line2": "2 40425   0.0199 163.8927 0000072 349.5019 161.7193  1.00273842 39526"}}, "geometry": {"type": "Point", "coordinates": [-52.14952567826909, -0.00018274311011581506]}}, {"type": "Feature", "properties": {"norad_id": 40875, "name": "EUTELSAT 8 WEST B", "group": "eutelsat", "lat": 0.06575519035531786, "lon": 54.77052142798999, "alt_km": 35801.86361425819, "timestamp": "2025-12-13T22:39:29.380012+00:00", "meta": {"OBJECT_NAME": "EUTELSAT 8 WEST B", "OBJECT_ID": "2015-039B", "EPOCH": "2025-12-13T04:51:06.190272", "MEAN_MOTION": 1.00271685, "ECCENTRICITY": 0.00042245, "INCLINATION": 0.0659, "RA_OF_ASC_NODE": 9.0443, "ARG_OF_PERICENTER": 253.9017, "MEAN_ANOMALY": 243.9823, "EPHEMERIS_TYPE": 0, "CLASSIFICATION_TYPE": "U", "NORAD_CAT_ID": 40875, "ELEMENT_SET_NO": 999, "REV_AT_EPOCH": 3779, "BSTAR": 0, "MEAN_MOTION_DOT": -5.2e-07, "MEAN_MOTION_DDOT": 0}, "tle": {"line1": "1 40875U 15039B   25347.20215498 -.00000052  00000+0  00000+0 0  9990", "line2": "2 40875   0.0659   9.0443 0004224 253.9017 243.9823  1.00271685 37792"}}, "geometry": {"type": "Point", "coordinates": [54.77052142798999, 0.06575519035531786]}}, {"type": "Feature", "properties": {"norad_id": 41310, "name": "EUTELSAT 9B", "group": "eutelsat", "lat": 0.023877709178596423, "lon": 71.74699094504197, "alt_km": 35804.96316892193, "timestamp": "2025-12-13T22:39:29.380024+00:00", "meta": {"OBJECT_NAME": "EUTELSAT 9B", "OBJECT_ID": "2016-005A", "EPOCH": "2025-12-13T04:55:50.735712", "MEAN_MOTION": 1.00270256, "ECCENTRICITY": 0.00046258, "INCLINATION": 0.0461, "RA_OF_ASC_NODE": 65.0532, "ARG_OF_PERICENTER": 205.7172, "MEAN_ANOMALY": 254.3324, "EPHEMERIS_TYPE": 0, "CLASSIFICATION_TYPE": "U", "NORAD_CAT_ID": 41310, "ELEMENT_SET_NO": 999, "REV_AT_EPOCH": 3625, "BSTAR": 0, "MEAN_MOTION_DOT": 7.5e-07, "MEAN_MOTION_DDOT": 0}, "tle": {"line1": "1 41310U 16005A   25347.20544833  .00000075  00000+0  00000+0 0  9991", "line2": "2 41310   0.0461  65.0532 0004625 205.7172 254.3324  1.00270256 36256"}}, "geometry": {"type": "Point", "coordinates": [71.74699094504197, 0.023877709178596423]}}, {"type": "Feature", "properties": {"norad_id": 41382, "name": "EUTELSAT 65 WEST A", "group": "eutelsat", "lat": -0.010091756087902155, "lon": -2.4369119010438327, "alt_km": 35785.67944437575, "timestamp": "2025-12-13T22:39:29.380036+00:00", "meta": {"OBJECT_NAME": "EUTELSAT 65 WEST A", "OBJECT_ID": "2016-014A", "EPOCH": "2025-12-13T04:34:45.254784", "MEAN_MOTION": 1.00271825, "ECCENTRICITY": 0.00024801, "INCLINATION": 0.0523, "RA_OF_ASC_NODE": 15.6423, "ARG_OF_PERICENTER": 254.5955, "MEAN_ANOMALY": 175.3791, "EPHEMERIS_TYPE": 0, "CLASSIFICATION_TYPE": "U", "NORAD_CAT_ID": 41382, "ELEMENT_SET_NO": 999, "REV_AT_EPOCH": 3567, "BSTAR": 0, "MEAN_MOTION_DOT": -2.63e-06, "MEAN_MOTION_DDOT": 0}, "tle": {"line1": "1 41382U 16014A   25347.19080156 -.00000263  00000+0  00000+0 0  9991", "line2": "2 41382   0.0523  15.6423 0002480 254.5955 175.3791  1.00271825 35670"}}, "geometry": {"type": "Point", "coordinates": [-2.4369119010438327, -0.010091756087902155]}}, {"type": "Feature", "properties": {"norad_id": 41589, "name": "EUTELSAT 117 WEST B", "group": "eutelsat", "lat": 0.003861062757309262, "lon": -54.24730748379119, "alt_km": 35786.5184405911, "timestamp": "2025-12-13T22:39:29.380047+00:00", "meta": {"OBJECT_NAME": "EUTELSAT 117 WEST B", "OBJECT_ID": "2016-038B", "EPOCH": "2025-12-12T23:11:46.195296", "MEAN_MOTION": 1.00271866, "ECCENTRICITY": 2.512e-05, "INCLINATION": 0.011, "RA_OF_ASC_NODE": 153.7448, "ARG_OF_PERICENTER": 269.9053, "MEAN_ANOMALY": 249.2194, "EPHEMERIS_TYPE": 0, "CLASSIFICATION_TYPE": "U", "NORAD_CAT_ID": 41589, "ELEMENT_SET_NO": 999, "REV_AT_EPOCH": 3479, "BSTAR": 0, "MEAN_MOTION_DOT": 1e-08, "MEAN_MOTION_DDOT": 0}, "tle": {"line1": "1 41589U 16038B   25346.96650689  .00000001  00000+0  00000+0 0  9993", "line2": "2 41589   0.0110 153.7448 0000251 269.9053 249.2194  1.00271866 34790"}}, "geometry": {"type": "Point", "coordinates": [-54.24730748379119, 0.003861062757309262]}}]}